OBJECT_NAME,OBJECT_ID,EPOCH,MEAN_MOTION,ECCENTRICITY,INCLINATION,RA_OF_ASC_NODE,ARG_OF_PERICENTER,MEAN_ANOMALY,EPHEMERIS_TYPE,CLASSIFICATION_TYPE,NORAD_CAT_ID,ELEMENT_SET_NO,REV_AT_EPOCH,BSTAR,MEAN_MOTION_DOT,MEAN_MOTION_DDOT
HST,1990-037B,2026-06-11T05:02:46.985856,15.30680019,.00019704,28.4707,121.4212,81.6673,278.4146,0,U,20580,999,78765,.1569585E-3,.5021E-4,0
POLAR,1996-013A,2026-06-10T21:00:17.076960,1.29846139,.64642994,79.8459,227.1261,209.2978,89.4613,0,U,23802,999,14477,0,.124E-5,0
SWAS,1998-071A,2026-06-11T06:01:24.958848,15.09590398,.00088947,69.8964,242.8269,265.3859,94.6290,0,U,25560,999,49637,.18613801E-3,.2895E-4,0
CXO,1999-040B,2026-06-13T02:04:26.599008,0.37806491,.7849026,56.1211,116.7320,310.2825,0.0985,0,U,25867,999,1730,0,.611E-5,0
XMM-NEWTON,1999-066A,2026-06-12T08:42:25.211520,0.50123487,.46769392,64.5165,283.0486,65.0051,0.0920,0,U,25989,999,2298,0,.79E-6,0
TERRA,1999-068A,2026-06-11T06:16:19.444224,14.61098276,.00011371,97.9458,212.0424,214.4897,187.4080,0,U,25994,999,40874,.71518675E-4,.307E-5,0
CLUSTER II-FM7 (SAMBA),2000-041A,2026-06-12T16:15:42.321888,0.44876884,.90502324,149.9129,50.0471,267.1318,359.9673,0,U,26410,999,2029,0,.5012E-4,0
CLUSTER II-FM8 (TANGO),2000-045B,2026-06-10T16:26:23.453952,0.44410860,.90534794,150.1514,50.7508,267.6710,3.1469,0,U,26464,999,2028,0,.4607E-4,0
ODIN,2001-007A,2026-06-11T01:23:22.054560,15.73770209,.00065901,97.3849,202.6148,150.7020,209.4615,0,U,26702,999,38843,.10197043E-2,.145592E-2,0
TIMED,2001-055B,2026-06-10T23:40:51.664512,14.95281516,.00007747,74.0676,247.5027,346.7034,13.4130,0,U,26998,999,32989,.10100259E-3,.1073E-4,0
CORIOLIS,2003-001A,2026-06-10T23:54:36.271296,14.19943123,.00130768,98.7125,168.9756,227.6569,132.3501,0,U,27640,999,21334,.61481353E-4,.87E-6,0
SORCE,2003-004A,2026-06-11T02:17:59.202240,15.03680854,.00173468,39.9914,296.4311,3.9519,356.1409,0,U,27651,999,27098,.19114906E-3,.252E-4,0
MOST,2003-031D,2026-06-11T07:09:03.467520,14.21321284,.0008671,98.7044,170.1061,269.6763,90.3420,0,U,27843,999,18987,.46047874E-4,.57E-6,0
SCISAT 1,2003-036A,2026-06-11T05:10:18.075936,14.81441675,.00086627,73.9285,183.2080,252.5064,107.5166,0,U,27858,999,23056,.59276622E-4,.427E-5,0
SWIFT,2004-047A,2026-06-09T19:22:22.703808,15.67639100,.00022391,20.5518,241.7982,174.3628,185.6843,0,U,28485,999,18570,.51551684E-3,.60185E-3,0
HINODE (SOLAR-B),2006-041A,2026-06-11T06:11:21.595776,14.68614746,.0016237,98.0549,178.4978,310.1573,49.8210,0,U,29479,999,5400,.10874152E-3,.584E-5,0
SHIJIAN-6 02A (SJ-6 02A),2006-046A,2026-06-11T05:17:46.288896,15.16869810,.00041156,97.6369,203.2424,138.3592,221.7954,0,U,29505,999,7136,.20527959E-3,.3972E-4,0
SHIJIAN-6 02B (SJ-6 02B),2006-046B,2026-06-11T06:45:15.346368,15.01361907,.00149938,97.7166,191.3767,77.5939,282.6962,0,U,29506,999,6985,.97021098E-4,.1192E-4,0
FGRST (GLAST),2008-029A,2026-06-10T22:37:22.196928,15.23918797,.00076335,25.5818,247.8418,251.4544,108.5165,0,U,33053,999,99488,.10689348E-3,.2996E-4,0
SDO,2010-005A,2026-06-10T09:46:09.208992,1.00270525,.00015956,34.6369,86.4462,53.5104,163.3265,0,U,36395,999,5999,0,-.68E-6,0
CRYOSAT 2,2010-013A,2026-06-11T07:00:46.787616,14.51897194,.00022019,92.0349,275.8688,87.1831,272.9628,0,U,36508,999,85722,.27295753E-4,.113E-5,0
X-SAT,2011-015C,2026-06-11T06:11:37.198752,14.25205595,.00143334,98.3507,139.5641,5.8719,354.2627,0,U,37389,999,78683,.16163611E-3,.339E-5,0
GCOM-W1 (SHIZUKU),2012-025A,2026-06-11T02:50:46.463712,14.57118937,.00018496,98.2021,102.7662,79.4102,296.3910,0,U,38337,999,74815,.93962892E-4,.378E-5,0
NUSTAR,2012-031A,2026-06-11T08:00:01.999872,15.08742205,.00072069,6.0271,78.0321,11.3835,234.4658,0,U,38358,999,130,.10325911E-2,.17607E-3,0
NEOSSAT,2013-009D,2026-06-11T05:11:43.106496,14.35824272,.00097859,98.4175,342.3912,263.7890,96.2182,0,U,39089,999,69588,.57638265E-4,.124E-5,0
BRITE-AUSTRIA,2013-009F,2026-06-11T01:53:25.175040,14.36539653,.00089837,98.3993,341.6658,257.1343,102.8840,0,U,39091,999,69617,.64241738E-4,.146E-5,0
IRIS,2013-033A,2026-06-11T02:30:00.497088,14.85872946,.00239924,97.9334,1.4003,342.3201,17.7177,0,U,39197,999,69947,.10380058E-3,.852E-5,0
HISAKI (SPRINT-A),2013-049A,2026-06-11T05:40:47.938944,13.55544055,.01368924,29.7197,250.2666,328.6235,30.6229,0,U,39253,999,63061,.86305414E-4,.128E-5,0
CASSIOPE,2013-055A,2026-06-11T04:34:55.468128,15.24631413,.02948725,80.9146,73.9988,82.5498,280.9131,0,U,39265,999,66675,.45687394E-3,.41596E-3,-.579199E-6
STSAT-3,2013-066G,2026-06-11T06:04:32.268000,15.02722646,.00110821,97.6215,132.2370,60.7673,299.4659,0,U,39422,999,68331,.2138035E-3,.2799E-4,0
