1 20580U 90037B 26162.21026604 .00005021 00000+0 15696-3 0 9999 
2 20580 28.4707 121.4212 0001970 81.6673 278.4146 15.30680019787654 
1 23802U 96013A 26161.87519765 .00000124 00000+0 00000+0 0 9993 
2 23802 79.8459 227.1261 6464299 209.2978 89.4613 1.29846139144774 
1 25560U 98071A 26162.25098332 .00002895 00000+0 18614-3 0 9998 
2 25560 69.8964 242.8269 0008894 265.3859 94.6290 15.09590398496370 
1 25867U 99040B 26164.08641897 .00000611 00000+0 00000+0 0 9998 
2 25867 56.1211 116.7320 7849026 310.2825 0.0985 0.37806491 17304 
1 25989U 99066A 26163.36279180 .00000079 00000+0 00000+0 0 9991 
2 25989 64.5165 283.0486 4676939 65.0051 0.0920 0.50123487 22986 
1 25994U 99068A 26162.26133616 .00000307 00000+0 71519-4 0 9992 
2 25994 97.9458 212.0424 0001137 214.4897 187.4080 14.61098276408740 
1 26410U 00041A 26163.67757317 .00005012 00000+0 00000+0 0 9995 
2 26410 149.9129 50.0471 9050232 267.1318 359.9673 0.44876884 20290 
1 26464U 00045B 26161.68499368 .00004607 00000+0 00000+0 0 9995 
2 26464 150.1514 50.7508 9053479 267.6710 3.1469 0.44410860 20284 
1 26702U 01007A 26162.05789415 .00145592 00000+0 10197-2 0 9996 
2 26702 97.3849 202.6148 0006590 150.7020 209.4615 15.73770209388431 
1 26998U 01055B 26161.98670908 .00001073 00000+0 10100-3 0 9993 
2 26998 74.0676 247.5027 0000774 346.7034 13.4130 14.95281516329893 
1 27640U 03001A 26161.99625314 .00000087 00000+0 61481-4 0 9996 
2 27640 98.7125 168.9756 0013076 227.6569 132.3501 14.19943123213344 
1 27651U 03004A 26162.09582410 .00002520 00000+0 19115-3 0 9992 
2 27651 39.9914 296.4311 0017346 3.9519 356.1409 15.03680854270986 
1 27843U 03031D 26162.29795680 .00000057 00000+0 46048-4 0 9991 
2 27843 98.7044 170.1061 0008671 269.6763 90.3420 14.21321284189874 
1 27858U 03036A 26162.21548699 .00000427 00000+0 59277-4 0 9999 
2 27858 73.9285 183.2080 0008662 252.5064 107.5166 14.81441675230567 
1 28485U 04047A 26160.80720722 .00060185 00000+0 51552-3 0 9995 
2 28485 20.5518 241.7982 0002239 174.3628 185.6843 15.67639100185704 
1 29479U 06041A 26162.25788884 .00000584 00000+0 10874-3 0 9998 
2 29479 98.0549 178.4978 0016237 310.1573 49.8210 14.68614746 54001 
1 29505U 06046A 26162.22067464 .00003972 00000+0 20528-3 0 9995 
2 29505 97.6369 203.2424 0004115 138.3592 221.7954 15.16869810 71364 
1 29506U 06046B 26162.28142762 .00001192 00000+0 97021-4 0 9992 
2 29506 97.7166 191.3767 0014993 77.5939 282.6962 15.01361907 69856 
1 33053U 08029A 26161.94261802 .00002996 00000+0 10689-3 0 9993 
2 33053 25.5818 247.8418 0007633 251.4544 108.5165 15.23918797994889 
1 36395U 10005A 26161.40705103 -.00000068 00000+0 00000+0 0 9991 
2 36395 34.6369 86.4462 0001595 53.5104 163.3265 1.00270525 59997 
1 36508U 10013A 26162.29220819 .00000113 00000+0 27296-4 0 9991 
2 36508 92.0349 275.8688 0002201 87.1831 272.9628 14.51897194857227 
1 37389U 11015C 26162.25806943 .00000339 00000+0 16164-3 0 9997 
2 37389 98.3507 139.5641 0014333 5.8719 354.2627 14.25205595786836 
1 38337U 12025A 26162.11859333 .00000378 00000+0 93963-4 0 9995 
2 38337 98.2021 102.7662 0001849 79.4102 296.3910 14.57118937748158 
1 38358U 12031A 26162.33335648 .00017607 00000+0 10326-2 0 9990 
2 38358 6.0271 78.0321 0007206 11.3835 234.4658 15.08742205 1302 
1 39089U 13009D 26162.21647114 .00000124 00000+0 57638-4 0 9994 
2 39089 98.4175 342.3912 0009785 263.7890 96.2182 14.35824272695885 
1 39091U 13009F 26162.07876360 .00000146 00000+0 64242-4 0 9991 
2 39091 98.3993 341.6658 0008983 257.1343 102.8840 14.36539653696178 
1 39197U 13033A 26162.10417242 .00000852 00000+0 10380-3 0 9996 
2 39197 97.9334 1.4003 0023992 342.3201 17.7177 14.85872946699473 
1 39253U 13049A 26162.23666596 .00000128 00000+0 86305-4 0 9995 
2 39253 29.7197 250.2666 0136892 328.6235 30.6229 13.55544055630619 
1 39265U 13055A 26162.19091977 .00041596 -57920-6 45687-3 0 9997 
2 39265 80.9146 73.9988 0294872 82.5498 280.9131 15.24631413666751 
1 39422U 13066G 26162.25315125 .00002799 00000+0 21380-3 0 9990 
2 39422 97.6215 132.2370 0011082 60.7673 299.4659 15.02722646683311 
